{
    "links": {
        "self": "http://www.neowsapp.com/rest/v1/neo/3591751?api_key=iIulBulltgU6a56xZRHN4H3l9WmuAYTsLGpBGhQ2"
    },
    "id": "3591751",
    "neo_reference_id": "3591751",
    "name": "(2011 YA29)",
    "designation": "2011 YA29",
    "nasa_jpl_url": "http://ssd.jpl.nasa.gov/sbdb.cgi?sstr=3591751",
    "absolute_magnitude_h": 25.0,
    "estimated_diameter": {
        "kilometers": {
            "estimated_diameter_min": 0.02658,
            "estimated_diameter_max": 0.0594346868
        },
        "meters": {
            "estimated_diameter_min": 26.58,
            "estimated_diameter_max": 59.4346868419
        },
        "miles": {
            "estimated_diameter_min": 0.0165160412,
            "estimated_diameter_max": 0.0369309908
        },
        "feet": {
            "estimated_diameter_min": 87.2047272,
            "estimated_diameter_max": 194.9956979785
        }
    },
    "is_potentially_hazardous_asteroid": false,
    "close_approach_data": [
        {
            "close_approach_date": "2012-01-04",
            "close_approach_date_full": "2012-Jan-04 07:34",
            "epoch_date_close_approach": 1325662440000,
            "relative_velocity": {
                "kilometers_per_second": "13.5597487391",
                "kilometers_per_hour": "48815.0954606711",
                "miles_per_hour": "30331.8019544375"
            },
            "miss_distance": {
                "astronomical": "0.0692210861",
                "lunar": "26.9270024929",
                "kilometers": "10355327.039646607",
                "miles": "6434501.8506208966"
            },
            "orbiting_body": "Earth"
        },
        {
            "close_approach_date": "2012-06-13",
            "close_approach_date_full": "2012-Jun-13 06:19",
            "epoch_date_close_approach": 1339568340000,
            "relative_velocity": {
                "kilometers_per_second": "12.1887395114",
                "kilometers_per_hour": "43879.4622410864",
                "miles_per_hour": "27264.9914130795"
            },
            "miss_distance": {
                "astronomical": "0.2857992204",
                "lunar": "111.1758967356",
                "kilometers": "42754954.619500548",
                "miles": "26566696.8864536424"
            },
            "orbiting_body": "Earth"
        }
    ],
    "orbital_data": {
        "orbit_id": "4",
        "orbit_determination_date": "2017-04-06 08:51:39",
        "first_observation_date": "2011-12-29",
        "last_observation_date": "2011-12-30",
        "data_arc_in_days": 1,
        "observations_used": 12,
        "orbit_uncertainty": "9",
        "minimum_orbit_intersection": ".0674239",
        "jupiter_tisserand_invariant": "5.014",
        "epoch_osculation": "2455925.5",
        "eccentricity": ".2341428172800241",
        "semi_major_axis": "1.258296620490174",
        "inclination": "23.202772727431",
        "ascending_node_longitude": "279.9847322689277",
        "orbital_period": "515.5525890127424",
        "perihelion_distance": ".963675504794671",
        "perihelion_argument": "237.7603031272361",
        "aphelion_distance": "1.552917736185676",
        "perihelion_time": "2455979.524251705064",
        "mean_anomaly": "322.2759520011986",
        "mean_motion": ".6982798800203527",
        "equinox": "J2000",
        "orbit_class": {
            "orbit_class_type": "APO",
            "orbit_class_description": "Near-Earth asteroid orbits which cross the Earth’s orbit similar to that of 1862 Apollo",
            "orbit_class_range": "a (semi-major axis) > 1.0 AU; q (perihelion) < 1.017 AU"
        }
    },
    "is_sentry_object": false
}